{
  "type": "FeatureCollection",
  "features": [
    {
      "type": "Feature",
      "properties": {
        "norad_id": 40796,
        "name": "COSMOS 2251 DEB",
        "group": "cosmos-2251-debris",
        "lat": -19.86962989714265,
        "lon": 147.27383280482235,
        "alt_km": 603.1457366811346,
        "timestamp": "2025-12-07T03:52:32.901112+00:00",
        "meta_object_name": "COSMOS 2251 DEB",
        "meta_object_id": "1993-036BVZ",
        "meta_epoch": "2025-12-06T06:05:12.907968",
        "meta_mean_motion": 14.8156322,
        "meta_eccentricity": 0.00560157,
        "meta_inclination": 74.0112,
        "meta_ra_of_asc_node": 155.0163,
        "meta_arg_of_pericenter": 292.7642,
        "meta_mean_anomaly": 245.9125,
        "meta_ephemeris_type": 0,
        "meta_classification_type": "U",
        "meta_norad_cat_id": 40796,
        "meta_element_set_no": 999,
        "meta_rev_at_epoch": 76062,
        "meta_bstar": 0.001475435,
        "meta_mean_motion_dot": 0.00011889,
        "meta_mean_motion_ddot": 0,
        "tle_line1": "1 40796U 93036BVZ 25340.25362162  .00011889  00000+0  14754-2 0  9997",
        "tle_line2": "2 40796  74.0112 155.0163 0056015 292.7642 245.9125 14.81563220760624"
      },
      "geometry": {
        "type": "Point",
        "coordinates": [
          147.27383280482235,
          -19.86962989714265
        ]
      }
    },
    {
      "type": "Feature",
      "properties": {
        "norad_id": 40797,
        "name": "COSMOS 2251 DEB",
        "group": "cosmos-2251-debris",
        "lat": 7.394406316886097,
        "lon": -75.21465092420553,
        "alt_km": 577.5661329129953,
        "timestamp": "2025-12-07T03:52:32.901123+00:00",
        "meta_object_name": "COSMOS 2251 DEB",
        "meta_object_id": "1993-036BWA",
        "meta_epoch": "2025-11-19T18:43:16.602528",
        "meta_mean_motion": 15.10509474,
        "meta_eccentricity": 0.00703947,
        "meta_inclination": 73.92,
        "meta_ra_of_asc_node": 143.0892,
        "meta_arg_of_pericenter": 60.6639,
        "meta_mean_anomaly": 300.156,
        "meta_ephemeris_type": 0,
        "meta_classification_type": "U",
        "meta_norad_cat_id": 40797,
        "meta_element_set_no": 999,
        "meta_rev_at_epoch": 64297,
        "meta_bstar": 0.00072810385,
        "meta_mean_motion_dot": 0.00012707,
        "meta_mean_motion_ddot": 0,
        "tle_line1": "1 40797U 93036BWA 25323.78005327  .00012707  00000+0  72810-3 0  9992",
        "tle_line2": "2 40797  73.9200 143.0892 0070394  60.6639 300.1560 15.10509474642979"
      },
      "geometry": {
        "type": "Point",
        "coordinates": [
          -75.21465092420553,
          7.394406316886097
        ]
      }
    },
    {
      "type": "Feature",
      "properties": {
        "norad_id": 40799,
        "name": "COSMOS 2251 DEB",
        "group": "cosmos-2251-debris",
        "lat": 60.60480909891305,
        "lon": -101.06570547220346,
        "alt_km": 614.3136097582246,
        "timestamp": "2025-12-07T03:52:32.901133+00:00",
        "meta_object_name": "COSMOS 2251 DEB",
        "meta_object_id": "1993-036BWC",
        "meta_epoch": "2025-12-03T15:56:34.043424",
        "meta_mean_motion": 14.96530915,
        "meta_eccentricity": 0.0118644,
        "meta_inclination": 73.9247,
        "meta_ra_of_asc_node": 116.8388,
        "meta_arg_of_pericenter": 0.7827,
        "meta_mean_anomaly": 359.3519,
        "meta_ephemeris_type": 0,
        "meta_classification_type": "U",
        "meta_norad_cat_id": 40799,
        "meta_element_set_no": 999,
        "meta_rev_at_epoch": 49841,
        "meta_bstar": 0.00050356325,
        "meta_mean_motion_dot": 6.569e-05,
        "meta_mean_motion_ddot": 0,
        "tle_line1": "1 40799U 93036BWC 25337.66428291  .00006569  00000+0  50356-3 0  9995",
        "tle_line2": "2 40799  73.9247 116.8388 0118644   0.7827 359.3519 14.96530915498410"
      },
      "geometry": {
        "type": "Point",
        "coordinates": [
          -101.06570547220346,
          60.60480909891305
        ]
      }
    },
    {
      "type": "Feature",
      "properties": {
        "norad_id": 40802,
        "name": "COSMOS 2251 DEB",
        "group": "cosmos-2251-debris",
        "lat": -2.2523607505628522,
        "lon": -15.397312124576596,
        "alt_km": 633.1930998846228,
        "timestamp": "2025-12-07T03:52:32.901144+00:00",
        "meta_object_name": "COSMOS 2251 DEB",
        "meta_object_id": "1993-036BWF",
        "meta_epoch": "2025-12-03T19:25:10.185888",
        "meta_mean_motion": 14.77466187,
        "meta_eccentricity": 0.00634015,
        "meta_inclination": 74.0391,
        "meta_ra_of_asc_node": 170.5311,
        "meta_arg_of_pericenter": 271.0455,
        "meta_mean_anomaly": 88.3457,
        "meta_ephemeris_type": 0,
        "meta_classification_type": "U",
        "meta_norad_cat_id": 40802,
        "meta_element_set_no": 999,
        "meta_rev_at_epoch": 64277,
        "meta_bstar": 0.00093875569,
        "meta_mean_motion_dot": 6.888e-05,
        "meta_mean_motion_ddot": 0,
        "tle_line1": "1 40802U 93036BWF 25337.80914567  .00006888  00000+0  93876-3 0  9990",
        "tle_line2": "2 40802  74.0391 170.5311 0063401 271.0455  88.3457 14.77466187642778"
      },
      "geometry": {
        "type": "Point",
        "coordinates": [
          -15.397312124576596,
          -2.2523607505628522
        ]
      }
    },
    {
      "type": "Feature",
      "properties": {
        "norad_id": 40803,
        "name": "COSMOS 2251 DEB",
        "group": "cosmos-2251-debris",
        "lat": -1.4173043716997926,
        "lon": -117.17650502389905,
        "alt_km": 726.0375768331769,
        "timestamp": "2025-12-07T03:52:32.901154+00:00",
        "meta_object_name": "COSMOS 2251 DEB",
        "meta_object_id": "1993-036BWG",
        "meta_epoch": "2025-12-05T22:55:29.451072",
        "meta_mean_motion": 14.51792027,
        "meta_eccentricity": 0.00362816,
        "meta_inclination": 74.0122,
        "meta_ra_of_asc_node": 64.6912,
        "meta_arg_of_pericenter": 281.8159,
        "meta_mean_anomaly": 77.8934,
        "meta_ephemeris_type": 0,
        "meta_classification_type": "U",
        "meta_norad_cat_id": 40803,
        "meta_element_set_no": 999,
        "meta_rev_at_epoch": 58654,
        "meta_bstar": 0.00062935795,
        "meta_mean_motion_dot": 2.525e-05,
        "meta_mean_motion_ddot": 0,
        "tle_line1": "1 40803U 93036BWG 25339.95520198  .00002525  00000+0  62936-3 0  9999",
        "tle_line2": "2 40803  74.0122  64.6912 0036281 281.8159  77.8934 14.51792027586549"
      },
      "geometry": {
        "type": "Point",
        "coordinates": [
          -117.17650502389905,
          -1.4173043716997926
        ]
      }
    },
    {
      "type": "Feature",
      "properties": {
        "norad_id": 40808,
        "name": "COSMOS 2251 DEB",
        "group": "cosmos-2251-debris",
        "lat": 34.45214282768923,
        "lon": -35.08415665653428,
        "alt_km": 662.4311316992935,
        "timestamp": "2025-12-07T03:52:32.901165+00:00",
        "meta_object_name": "COSMOS 2251 DEB",
        "meta_object_id": "1993-036BWM",
        "meta_epoch": "2025-12-05T18:34:34.386240",
        "meta_mean_motion": 14.67285341,
        "meta_eccentricity": 0.0009965,
        "meta_inclination": 74.0402,
        "meta_ra_of_asc_node": 158.9151,
        "meta_arg_of_pericenter": 196.0709,
        "meta_mean_anomaly": 181.8049,
        "meta_ephemeris_type": 0,
        "meta_classification_type": "U",
        "meta_norad_cat_id": 40808,
        "meta_element_set_no": 999,
        "meta_rev_at_epoch": 63517,
        "meta_bstar": 0.0028356458,
        "meta_mean_motion_dot": 0.00016013,
        "meta_mean_motion_ddot": 0,
        "tle_line1": "1 40808U 93036BWM 25339.77400910  .00016013  00000+0  28356-2 0  9997",
        "tle_line2": "2 40808  74.0402 158.9151 0009965 196.0709 181.8049 14.67285341635174"
      },
      "geometry": {
        "type": "Point",
        "coordinates": [
          -35.08415665653428,
          34.45214282768923
        ]
      }
    },
    {
      "type": "Feature",
      "properties": {
        "norad_id": 40810,
        "name": "COSMOS 2251 DEB",
        "group": "cosmos-2251-debris",
        "lat": -52.82239650239548,
        "lon": -72.46321393777731,
        "alt_km": 690.9090946384003,
        "timestamp": "2025-12-07T03:52:32.901175+00:00",
        "meta_object_name": "COSMOS 2251 DEB",
        "meta_object_id": "1993-036BWP",
        "meta_epoch": "2025-12-02T07:34:18.151104",
        "meta_mean_motion": 14.58589191,
        "meta_eccentricity": 0.00187807,
        "meta_inclination": 74.0355,
        "meta_ra_of_asc_node": 94.5842,
        "meta_arg_of_pericenter": 246.5096,
        "meta_mean_anomaly": 113.4096,
        "meta_ephemeris_type": 0,
        "meta_classification_type": "U",
        "meta_norad_cat_id": 40810,
        "meta_element_set_no": 999,
        "meta_rev_at_epoch": 61531,
        "meta_bstar": 0.001131408,
        "meta_mean_motion_dot": 5.252e-05,
        "meta_mean_motion_ddot": 0,
        "tle_line1": "1 40810U 93036BWP 25336.31548786  .00005252  00000+0  11314-2 0  9990",
        "tle_line2": "2 40810  74.0355  94.5842 0018780 246.5096 113.4096 14.58589191615318"
      },
      "geometry": {
        "type": "Point",
        "coordinates": [
          -72.46321393777731,
          -52.82239650239548
        ]
      }
    }
  ]
}